[
    {
        "OBJECT_NAME": "BEIDOU-3 IGSO-3",
        "OBJECT_ID": "2019-073A",
        "EPOCH": "2025-03-02T00:23:07.884672",
        "MEAN_MOTION": 1.00278242,
        "ECCENTRICITY": 0.0041604,
        "INCLINATION": 55.6074,
        "RA_OF_ASC_NODE": 285.9808,
        "ARG_OF_PERICENTER": 182.025,
        "MEAN_ANOMALY": 178.028,
        "EPHEMERIS_TYPE": 0,
        "CLASSIFICATION_TYPE": "U",
        "NORAD_CAT_ID": 44709,
        "ELEMENT_SET_NO": 999,
        "REV_AT_EPOCH": 1972,
        "BSTAR": 0,
        "MEAN_MOTION_DOT": -1.54e-06,
        "MEAN_MOTION_DDOT": 0
    },
    {
        "OBJECT_NAME": "BEIDOU-3 M22",
        "OBJECT_ID": "2019-078A",
        "EPOCH": "2025-03-02T02:27:35.028864",
        "MEAN_MOTION": 1.86231863,
        "ECCENTRICITY": 0.0007143,
        "INCLINATION": 54.3555,
        "RA_OF_ASC_NODE": 316.384,
        "ARG_OF_PERICENTER": 26.4396,
        "MEAN_ANOMALY": 333.6542,
        "EPHEMERIS_TYPE": 0,
        "CLASSIFICATION_TYPE": "U",
        "NORAD_CAT_ID": 44793,
        "ELEMENT_SET_NO": 999,
        "REV_AT_EPOCH": 3585,
        "BSTAR": 0,
        "MEAN_MOTION_DOT": -5.4e-07,
        "MEAN_MOTION_DDOT": 0
    },
    {
        "OBJECT_NAME": "BEIDOU-3 M21",
        "OBJECT_ID": "2019-078B",
        "EPOCH": "2025-03-02T05:36:13.943808",
        "MEAN_MOTION": 1.86227567,
        "ECCENTRICITY": 0.0005192,
        "INCLINATION": 54.3287,
        "RA_OF_ASC_NODE": 316.3501,
        "ARG_OF_PERICENTER": 20.4223,
        "MEAN_ANOMALY": 339.6555,
        "EPHEMERIS_TYPE": 0,
        "CLASSIFICATION_TYPE": "U",
        "NORAD_CAT_ID": 44794,
        "ELEMENT_SET_NO": 999,
        "REV_AT_EPOCH": 3586,
        "BSTAR": 0,
        "MEAN_MOTION_DOT": -5.4e-07,
        "MEAN_MOTION_DDOT": 0
    },
    {
        "OBJECT_NAME": "BEIDOU-3 M19",
        "OBJECT_ID": "2019-090A",
        "EPOCH": "2025-03-02T14:33:05.731776",
        "MEAN_MOTION": 1.86231325,
        "ECCENTRICITY": 0.002006,
        "INCLINATION": 56.1435,
        "RA_OF_ASC_NODE": 78.4282,
        "ARG_OF_PERICENTER": 285.3774,
        "MEAN_ANOMALY": 157.4639,
        "EPHEMERIS_TYPE": 0,
        "CLASSIFICATION_TYPE": "U",
        "NORAD_CAT_ID": 44864,
        "ELEMENT_SET_NO": 999,
        "REV_AT_EPOCH": 3544,
        "BSTAR": 0,
        "MEAN_MOTION_DOT": 6e-08,
        "MEAN_MOTION_DDOT": 0
    },
    {
        "OBJECT_NAME": "BEIDOU-3 M20",
        "OBJECT_ID": "2019-090B",
        "EPOCH": "2025-03-02T10:09:57.030336",
        "MEAN_MOTION": 1.86231274,
        "ECCENTRICITY": 0.001763,
        "INCLINATION": 56.145,
        "RA_OF_ASC_NODE": 78.468,
        "ARG_OF_PERICENTER": 296.911,
        "MEAN_ANOMALY": 113.0961,
        "EPHEMERIS_TYPE": 0,
        "CLASSIFICATION_TYPE": "U",
        "NORAD_CAT_ID": 44865,
        "ELEMENT_SET_NO": 999,
        "REV_AT_EPOCH": 3543,
        "BSTAR": 0,
        "MEAN_MOTION_DOT": 8e-08,
        "MEAN_MOTION_DDOT": 0
    },
    {
        "OBJECT_NAME": "BEIDOU-3 G2",
        "OBJECT_ID": "2020-017A",
        "EPOCH": "2025-03-02T09:37:38.622144",
        "MEAN_MOTION": 1.00272163,
        "ECCENTRICITY": 0.0003002,
        "INCLINATION": 2.6909,
        "RA_OF_ASC_NODE": 37.9508,
        "ARG_OF_PERICENTER": 299.8212,
        "MEAN_ANOMALY": 47.0905,
        "EPHEMERIS_TYPE": 0,
        "CLASSIFICATION_TYPE": "U",
        "NORAD_CAT_ID": 45344,
        "ELEMENT_SET_NO": 999,
        "REV_AT_EPOCH": 1852,
        "BSTAR": 0,
        "MEAN_MOTION_DOT": -1.43e-06,
        "MEAN_MOTION_DDOT": 0
    },
    {
        "OBJECT_NAME": "BEIDOU-3 G3",
        "OBJECT_ID": "2020-040A",
        "EPOCH": "2025-03-02T14:21:46.214784",
        "MEAN_MOTION": 1.00274747,
        "ECCENTRICITY": 0.0003087,
        "INCLINATION": 1.3114,
        "RA_OF_ASC_NODE": 61.0095,
        "ARG_OF_PERICENTER": 312.806,
        "MEAN_ANOMALY": 112.7651,
        "EPHEMERIS_TYPE": 0,
        "CLASSIFICATION_TYPE": "U",
        "NORAD_CAT_ID": 45807,
        "ELEMENT_SET_NO": 999,
        "REV_AT_EPOCH": 1734,
        "BSTAR": 0,
        "MEAN_MOTION_DOT": -3.56e-06,
        "MEAN_MOTION_DDOT": 0
    },
    {
        "OBJECT_NAME": "BEIDOU-3 G4",
        "OBJECT_ID": "2023-066A",
        "EPOCH": "2025-03-02T13:45:30.144384",
        "MEAN_MOTION": 1.00270925,
        "ECCENTRICITY": 0.0001721,
        "INCLINATION": 1.4833,
        "RA_OF_ASC_NODE": 290.1728,
        "ARG_OF_PERICENTER": 232.2763,
        "MEAN_ANOMALY": 4.5564,
        "EPHEMERIS_TYPE": 0,
        "CLASSIFICATION_TYPE": "U",
        "NORAD_CAT_ID": 56564,
        "ELEMENT_SET_NO": 999,
        "REV_AT_EPOCH": 666,
        "BSTAR": 0,
        "MEAN_MOTION_DOT": -1.15e-06,
        "MEAN_MOTION_DDOT": 0
    },
    {
        "OBJECT_NAME": "BEIDOU-3 M28",
        "OBJECT_ID": "2023-207A",
        "EPOCH": "2025-03-02T07:33:17.328096",
        "MEAN_MOTION": 1.86231924,
        "ECCENTRICITY": 0.0004847,
        "INCLINATION": 55.3304,
        "RA_OF_ASC_NODE": 78.2744,
        "ARG_OF_PERICENTER": 290.5367,
        "MEAN_ANOMALY": 69.4616,
        "EPHEMERIS_TYPE": 0,
        "CLASSIFICATION_TYPE": "U",
        "NORAD_CAT_ID": 58654,
        "ELEMENT_SET_NO": 999,
        "REV_AT_EPOCH": 805,
        "BSTAR": 0,
        "MEAN_MOTION_DOT": 7e-08,
        "MEAN_MOTION_DDOT": 0
    },
    {
        "OBJECT_NAME": "BEIDOU-3 M26",
        "OBJECT_ID": "2023-207B",
        "EPOCH": "2025-03-02T02:44:43.396224",
        "MEAN_MOTION": 1.86231411,
        "ECCENTRICITY": 0.000563,
        "INCLINATION": 55.3322,
        "RA_OF_ASC_NODE": 78.2672,
        "ARG_OF_PERICENTER": 276.4798,
        "MEAN_ANOMALY": 83.5076,
        "EPHEMERIS_TYPE": 0,
        "CLASSIFICATION_TYPE": "U",
        "NORAD_CAT_ID": 58655,
        "ELEMENT_SET_NO": 999,
        "REV_AT_EPOCH": 803,
        "BSTAR": 0,
        "MEAN_MOTION_DOT": 9e-08,
        "MEAN_MOTION_DDOT": 0
    },
    {
        "OBJECT_NAME": "BEIDOU-3 M25",
        "OBJECT_ID": "2024-168B",
        "EPOCH": "2025-03-01T03:16:38.766720",
        "MEAN_MOTION": 1.86229791,
        "ECCENTRICITY": 0.0004795,
        "INCLINATION": 54.8825,
        "RA_OF_ASC_NODE": 318.6291,
        "ARG_OF_PERICENTER": 306.0737,
        "MEAN_ANOMALY": 236.6818,
        "EPHEMERIS_TYPE": 0,
        "CLASSIFICATION_TYPE": "U",
        "NORAD_CAT_ID": 61186,
        "ELEMENT_SET_NO": 999,
        "REV_AT_EPOCH": 297,
        "BSTAR": 0,
        "MEAN_MOTION_DOT": -5e-07,
        "MEAN_MOTION_DDOT": 0
    },
    {
        "OBJECT_NAME": "BEIDOU-3 M27",
        "OBJECT_ID": "2024-168C",
        "EPOCH": "2025-03-01T10:53:55.559328",
        "MEAN_MOTION": 1.86229987,
        "ECCENTRICITY": 0.0002894,
        "INCLINATION": 54.8778,
        "RA_OF_ASC_NODE": 318.6029,
        "ARG_OF_PERICENTER": 1.4396,
        "MEAN_ANOMALY": 169.0621,
        "EPHEMERIS_TYPE": 0,
        "CLASSIFICATION_TYPE": "U",
        "NORAD_CAT_ID": 61187,
        "ELEMENT_SET_NO": 999,
        "REV_AT_EPOCH": 45,
        "BSTAR": 0,
        "MEAN_MOTION_DOT": -5.2e-07,
        "MEAN_MOTION_DDOT": 0
    }
]