BEIDOU-3 IGSO-3 (C40)   
1 44709U 19073A   25061.01606348 -.00000154  00000+0  00000+0 0  9995
2 44709  55.6074 285.9808 0041604 182.0250 178.0280  1.00278242 19727
BEIDOU-3 M22 (C44)      
1 44793U 19078A   25061.10248876 -.00000054  00000+0  00000+0 0  9990
2 44793  54.3555 316.3840 0007143  26.4396 333.6542  1.86231863 35851
BEIDOU-3 M21 (C43)      
1 44794U 19078B   25061.23349472 -.00000054  00000+0  00000+0 0  9999
2 44794  54.3287 316.3501 0005192  20.4223 339.6555  1.86227567 35860
BEIDOU-3 M19 (C41)      
1 44864U 19090A   25061.60631634  .00000006  00000+0  00000+0 0  9992
2 44864  56.1435  78.4282 0020060 285.3774 157.4639  1.86231325 35450
BEIDOU-3 M20 (C42)      
1 44865U 19090B   25061.42357674  .00000008  00000+0  00000+0 0  9994
2 44865  56.1450  78.4680 0017630 296.9110 113.0961  1.86231274 35438
BEIDOU-3 G2 (C60)       
1 45344U 20017A   25061.40114146 -.00000143  00000+0  00000+0 0  9992
2 45344   2.6909  37.9508 0003002 299.8212  47.0905  1.00272163 18521
BEIDOU-3 G3 (C61)       
1 45807U 20040A   25061.59845156 -.00000356  00000+0  00000+0 0  9990
2 45807   1.3114  61.0095 0003087 312.8060 112.7651  1.00274747 17345
BEIDOU-3 G4 (C62)       
1 56564U 23066A   25061.57326556 -.00000115  00000+0  00000+0 0  9992
2 56564   1.4833 290.1728 0001721 232.2763   4.5564  1.00270925  6660
BEIDOU-3 M28 (C50)      
1 58654U 23207A   25061.31478389  .00000007  00000+0  00000+0 0  9994
2 58654  55.3304  78.2744 0004847 290.5367  69.4616  1.86231924  8058
BEIDOU-3 M26 (C48)      
1 58655U 23207B   25061.11439116  .00000009  00000+0  00000+0 0  9990
2 58655  55.3322  78.2672 0005630 276.4798  83.5076  1.86231411  8037
BEIDOU-3 M25 (C47)      
1 61186U 24168B   25060.13655980 -.00000050  00000+0  00000+0 0  9997
2 61186  54.8825 318.6291 0004795 306.0737 236.6818  1.86229791  2974
BEIDOU-3 M27 (C49)      
1 61187U 24168C   25060.45411527 -.00000052  00000+0  00000+0 0  9992
2 61187  54.8778 318.6029 0002894   1.4396 169.0621  1.86229987   455
